{
  "links" : {
    "next" : "https://api.nasa.gov/neo/rest/v1/feed?start_date=2011-10-16&end_date=2011-10-16&detailed=true&api_key=t0TVs3DtDT2H8Oy2Zy8m2eVrNsAVKAexjcZXUckd",
    "prev" : "https://api.nasa.gov/neo/rest/v1/feed?start_date=2011-10-14&end_date=2011-10-14&detailed=true&api_key=t0TVs3DtDT2H8Oy2Zy8m2eVrNsAVKAexjcZXUckd",
    "self" : "https://api.nasa.gov/neo/rest/v1/feed?start_date=2011-10-15&end_date=2011-10-15&detailed=true&api_key=t0TVs3DtDT2H8Oy2Zy8m2eVrNsAVKAexjcZXUckd"
  },
  "element_count" : 8,
  "near_earth_objects" : {
    "2011-10-15" : [ {
      "links" : {
        "self" : "https://api.nasa.gov/neo/rest/v1/neo/3773985?api_key=t0TVs3DtDT2H8Oy2Zy8m2eVrNsAVKAexjcZXUckd"
      },
      "neo_reference_id" : "3773985",
      "name" : "(2017 HE)",
      "nasa_jpl_url" : "http://ssd.jpl.nasa.gov/sbdb.cgi?sstr=3773985",
      "absolute_magnitude_h" : 26.682,
      "estimated_diameter" : {
        "kilometers" : {
          "estimated_diameter_min" : 0.0122505328,
          "estimated_diameter_max" : 0.027393024
        },
        "meters" : {
          "estimated_diameter_min" : 12.2505327765,
          "estimated_diameter_max" : 27.3930240488
        },
        "miles" : {
          "estimated_diameter_min" : 0.0076121258,
          "estimated_diameter_max" : 0.0170212307
        },
        "feet" : {
          "estimated_diameter_min" : 40.1920379544,
          "estimated_diameter_max" : 89.8721290202
        }
      },
      "is_potentially_hazardous_asteroid" : false,
      "close_approach_data" : [ {
        "close_approach_date" : "2011-10-15",
        "epoch_date_close_approach" : 1318662000000,
        "relative_velocity" : {
          "kilometers_per_second" : "17.3239278552",
          "kilometers_per_hour" : "62366.1402785566",
          "miles_per_hour" : "38751.8942191953"
        },
        "miss_distance" : {
          "astronomical" : "0.2590931946",
          "lunar" : "100.7872543335",
          "kilometers" : "38759792",
          "miles" : "24084218"
        },
        "orbiting_body" : "Earth"
      } ],
      "orbital_data" : {
        "orbit_id" : "4",
        "orbit_determination_date" : "2017-04-23 06:18:49",
        "orbit_uncertainty" : "7",
        "minimum_orbit_intersection" : ".00595889",
        "jupiter_tisserand_invariant" : "5.298",
        "epoch_osculation" : "2458000.5",
        "eccentricity" : ".3439952899362467",
        "semi_major_axis" : "1.181531894883978",
        "inclination" : "2.746846170175341",
        "ascending_node_longitude" : "27.94005363649257",
        "orbital_period" : "469.1012621138207",
        "perihelion_distance" : ".7750904881344411",
        "perihelion_argument" : "89.07056446766876",
        "aphelion_distance" : "1.587973301633515",
        "perihelion_time" : "2457793.507091943021",
        "mean_anomaly" : "158.8515165461909",
        "mean_motion" : ".7674249230918743",
        "equinox" : "J2000"
      }
    }, {
      "links" : {
        "self" : "https://api.nasa.gov/neo/rest/v1/neo/3565395?api_key=t0TVs3DtDT2H8Oy2Zy8m2eVrNsAVKAexjcZXUckd"
      },
      "neo_reference_id" : "3565395",
      "name" : "(2011 JW10)",
      "nasa_jpl_url" : "http://ssd.jpl.nasa.gov/sbdb.cgi?sstr=3565395",
      "absolute_magnitude_h" : 23.1,
      "estimated_diameter" : {
        "kilometers" : {
          "estimated_diameter_min" : 0.063760979,
          "estimated_diameter_max" : 0.1425738833
        },
        "meters" : {
          "estimated_diameter_min" : 63.7609789875,
          "estimated_diameter_max" : 142.5738833281
        },
        "miles" : {
          "estimated_diameter_min" : 0.0396192233,
          "estimated_diameter_max" : 0.0885912765
        },
        "feet" : {
          "estimated_diameter_min" : 209.1895703015,
          "estimated_diameter_max" : 467.7620993781
        }
      },
      "is_potentially_hazardous_asteroid" : false,
      "close_approach_data" : [ {
        "close_approach_date" : "2011-10-15",
        "epoch_date_close_approach" : 1318662000000,
        "relative_velocity" : {
          "kilometers_per_second" : "12.7291274423",
          "kilometers_per_hour" : "45824.8587923912",
          "miles_per_hour" : "28473.78517575"
        },
        "miss_distance" : {
          "astronomical" : "0.2253598807",
          "lunar" : "87.6649932861",
          "kilometers" : "33713360",
          "miles" : "20948510"
        },
        "orbiting_body" : "Earth"
      } ],
      "orbital_data" : {
        "orbit_id" : "11",
        "orbit_determination_date" : "2017-09-22 06:48:44",
        "orbit_uncertainty" : "0",
        "minimum_orbit_intersection" : ".199083",
        "jupiter_tisserand_invariant" : "4.883",
        "epoch_osculation" : "2458000.5",
        "eccentricity" : ".215015341799917",
        "semi_major_axis" : "1.310150950464507",
        "inclination" : "21.59624469514587",
        "ascending_node_longitude" : "219.3392875156611",
        "orbital_period" : "547.7475342927005",
        "perihelion_distance" : "1.028448396040895",
        "perihelion_argument" : "88.96478015231004",
        "aphelion_distance" : "1.591853504888119",
        "perihelion_time" : "2457968.108769905368",
        "mean_anomaly" : "21.28871807542681",
        "mean_motion" : ".6572370982278606",
        "equinox" : "J2000"
      }
    } ]
  }
}